NORAD_CAT_ID,OBJECT_NAME,OBJECT_TYPE,EPOCH,MEAN_MOTION,ECCENTRICITY,INCLINATION,RA_OF_ASC_NODE,ARG_OF_PERICENTER,MEAN_ANOMALY,BSTAR,MEAN_MOTION_DOT,MEAN_MOTION_DDOT,TLE_LINE0,TLE_LINE1,TLE_LINE2,SEMIMAJOR_AXIS,PERIOD,APOGEE,PERIGEE,DECAYED
52580.0,STARLINK-3919,PAYLOAD,2023-10-17 18:08:06,15.08845857,0.0001313,53.2156,97.373,86.3323,273.7819,0.00014457,2.014e-05,0.0,0 STARLINK-3919,1 52580U 22051AW  23290.75563493  .00002014  00000-0  14457-3 0  9999,2 52580  53.2156  97.3730 0001313  86.3323 273.7819 15.08845857 79448,6917.862,95.437,540.636,538.819,0.0
52580.0,STARLINK-3919,PAYLOAD,2023-10-18 11:37:21,15.08837901,0.0001375,53.2165,94.1022,84.4402,275.6747,9.8746e-05,1.284e-05,0.0,0 STARLINK-3919,1 52580U 22051AW  23291.48428151  .00001284  00000-0  98746-4 0  9993,2 52580  53.2165  94.1022 0001375  84.4402 275.6747 15.08837901 79624,6917.887,95.438,540.703,538.801,0.0
52580.0,STARLINK-3919,PAYLOAD,2023-10-18 13:12:45,15.08837438,0.0001348,53.216,93.8047,84.2044,275.9102,9.5013e-05,1.224e-05,0.0,0 STARLINK-3919,1 52580U 22051AW  23291.55052191  .00001224  00000-0  95013-4 0  9996,2 52580  53.2160  93.8047 0001348  84.2044 275.9102 15.08837438 79568,6917.888,95.438,540.686,538.821,0.0
52580.0,STARLINK-3919,PAYLOAD,2023-10-19 13:03:31,15.08851426,0.0001547,53.2154,89.3454,91.973,268.1439,0.00013957,1.935e-05,0.0,0 STARLINK-3919,1 52580U 22051AW  23292.54411190  .00001935  00000-0  13957-3 0  9999,2 52580  53.2154  89.3454 0001547  91.9730 268.1439 15.08851426 79718,6917.845,95.437,540.781,538.64,0.0
52580.0,STARLINK-3919,PAYLOAD,2023-10-19 17:49:39,15.08862798,0.0001164,53.216,88.4517,87.7033,272.4093,0.00030499,4.572e-05,0.0,0 STARLINK-3919,1 52580U 22051AW  23292.74282290  .00004572  00000-0  30499-3 0  9998,2 52580  53.2160  88.4517 0001164  87.7033 272.4093 15.08862798 79818,6917.811,95.436,540.481,538.87,0.0
52580.0,STARLINK-3919,PAYLOAD,2023-10-20 03:21:58,15.0885895,0.0001153,53.2181,86.6681,69.0595,291.0521,0.00026821,3.985e-05,0.0,0 STARLINK-3919,1 52580U 22051AW  23293.14026134  .00003985  00000-0  26821-3 0  9997,2 52580  53.2181  86.6681 0001153  69.0595 291.0521 15.08858950 79871,6917.822,95.436,540.485,538.89,0.0
52580.0,STARLINK-3919,PAYLOAD,2023-10-20 09:43:32,15.08830329,0.0001951,53.2151,85.4784,77.3528,282.7683,-0.00011108,-2.055e-05,0.0,0 STARLINK-3919,1 52580U 22051AW  23293.40523804 -.00002055  00000-0 -11108-3 0  9993,2 52580  53.2151  85.4784 0001951  77.3528 282.7683 15.08830329 79914,6917.91,95.438,541.125,538.425,0.0
52580.0,STARLINK-3919,PAYLOAD,2023-10-21 12:45:06,15.08831867,0.0002466,53.2145,80.4212,76.0105,284.1161,-9.2641e-05,-1.762e-05,0.0,0 STARLINK-3919,1 52580U 22051AW  23294.53132399 -.00001762  00000-0 -92641-4 0  9999,2 52580  53.2145  80.4212 0002466  76.0105 284.1161 15.08831867 80015,6917.905,95.438,541.476,538.064,0.0
52580.0,STARLINK-3919,PAYLOAD,2023-10-21 19:06:37,15.0885493,0.0001416,53.2173,79.2321,61.0995,299.0139,0.00012402,1.687e-05,0.0,0 STARLINK-3919,1 52580U 22051AW  23294.79627249  .00001687  00000-0  12402-3 0  9990,2 52580  53.2173  79.2321 0001416  61.0995 299.0139 15.08854930 80126,6917.835,95.437,540.679,538.72,0.0
52580.0,STARLINK-3919,PAYLOAD,2023-10-22 03:03:34,15.08835435,0.0001959,53.2182,77.7441,74.356,285.7648,-1.5526e-06,-3.13e-06,0.0,0 STARLINK-3919,1 52580U 22051AW  23295.12748584 -.00000313  00000-0 -15526-5 0  9993,2 52580  53.2182  77.7441 0001959  74.3560 285.7648 15.08835435 80170,6917.894,95.438,541.115,538.404,0.0
52580.0,STARLINK-3919,PAYLOAD,2023-10-22 14:11:17,15.08825923,0.0002039,53.2154,75.6642,80.1218,280.0005,7.1841e-05,8.55e-06,0.0,0 STARLINK-3919,1 52580U 22051AW  23295.59117043  .00000855  00000-0  71841-4 0  9994,2 52580  53.2154  75.6642 0002039  80.1218 280.0005 15.08825923 80170,6917.923,95.438,541.199,538.378,0.0
52580.0,STARLINK-3919,PAYLOAD,2023-10-22 15:46:40,15.08825792,0.0001893,53.2156,75.3665,80.9011,279.2195,9.8546e-05,1.28e-05,0.0,0 STARLINK-3919,1 52580U 22051AW  23295.65741158  .00001280  00000-0  98546-4 0  9995,2 52580  53.2156  75.3665 0001893  80.9011 279.2195 15.08825792 80253,6917.924,95.438,541.098,538.479,0.0
52580.0,STARLINK-3919,PAYLOAD,2023-10-23 02:54:21,15.08844579,0.0001632,53.2167,73.2839,88.056,272.0619,1.7593e-05,-8e-08,0.0,0 STARLINK-3919,1 52580U 22051AW  23296.12108751 -.00000008  00000-0  17593-4 0  9995,2 52580  53.2167  73.2839 0001632  88.0560 272.0619 15.08844579 80328,6917.866,95.437,540.86,538.602,0.0
52580.0,STARLINK-3919,PAYLOAD,2023-10-23 12:26:40,15.0885043,0.0001748,53.2158,71.5001,78.7556,281.3632,-5.6997e-05,-1.195e-05,0.0,0 STARLINK-3919,1 52580U 22051AW  23296.51852271 -.00001195  00000-0 -56997-4 0  9991,2 52580  53.2158  71.5001 0001748  78.7556 281.3632 15.08850430 80319,6917.849,95.437,540.923,538.504,0.0
52580.0,STARLINK-3919,PAYLOAD,2023-10-24 12:17:28,15.08837615,0.0001525,53.2161,67.0403,83.5335,276.583,0.00017965,2.572e-05,0.0,0 STARLINK-3919,1 52580U 22051AW  23297.51212990  .00002572  00000-0  17965-3 0  9999,2 52580  53.2161  67.0403 0001525  83.5335 276.5830 15.08837615 80531,6917.888,95.438,540.808,538.698,0.0
52580.0,STARLINK-3919,PAYLOAD,2023-10-24 15:28:14,15.0883814,0.0001506,53.2171,66.4451,87.3785,272.7379,0.00019182,2.766e-05,0.0,0 STARLINK-3919,1 52580U 22051AW  23297.64460814  .00002766  00000-0  19182-3 0  9991,2 52580  53.2171  66.4451 0001506  87.3785 272.7379 15.08838140 80482,6917.886,95.438,540.793,538.709,0.0
52580.0,STARLINK-3919,PAYLOAD,2023-10-25 12:08:15,15.08836945,0.000172,53.2173,62.5804,87.0773,273.0416,1.411e-05,-6.4e-07,0.0,0 STARLINK-3919,1 52580U 22051AW  23298.50573453 -.00000064  00000-0  14110-4 0  9998,2 52580  53.2173  62.5804 0001720  87.0773 273.0416 15.08836945 80684,6917.89,95.438,540.945,538.565,0.0
52580.0,STARLINK-3919,PAYLOAD,2023-10-26 13:34:24,15.088469,0.0001425,53.2164,57.8222,90.8955,269.22,0.00015274,2.144e-05,0.0,0 STARLINK-3919,1 52580U 22051AW  23299.56556698  .00002144  00000-0  15274-3 0  9998,2 52580  53.2164  57.8222 0001425  90.8955 269.2200 15.08846900 80771,6917.859,95.437,540.71,538.739,0.0
52580.0,STARLINK-3919,PAYLOAD,2023-10-27 00:42:06,15.08851382,0.0001506,53.2171,55.7411,84.9954,275.121,0.00028517,4.255e-05,0.0,0 STARLINK-3919,1 52580U 22051AW  23300.02924363  .00004255  00000-0  28517-3 0  9999,2 52580  53.2171  55.7411 0001506  84.9954 275.1210 15.08851382 80912,6917.846,95.437,540.752,538.669,0.0
52580.0,STARLINK-3919,PAYLOAD,2023-10-27 11:49:48,15.08846582,0.0001415,53.2165,53.6591,81.164,278.9512,0.00010733,1.421e-05,0.0,0 STARLINK-3919,1 52580U 22051AW  23300.49292415  .00001421  00000-0  10733-3 0  9999,2 52580  53.2165  53.6591 0001415  81.1640 278.9512 15.08846582 80980,6917.86,95.437,540.704,538.746,0.0
52580.0,STARLINK-3919,PAYLOAD,2023-10-27 16:35:57,15.08854121,0.0001597,53.2163,52.7664,82.6279,277.4895,0.00021231,3.094e-05,0.0,0 STARLINK-3919,1 52580U 22051AW  23300.69163960  .00003094  00000-0  21231-3 0  9996,2 52580  53.2163  52.7664 0001597  82.6279 277.4895 15.08854121 80946,6917.837,95.437,540.807,538.597,0.0
52580.0,STARLINK-3919,PAYLOAD,2023-10-28 00:32:54,15.08835499,0.0001383,53.2166,51.2801,87.4166,272.6984,-7.8017e-05,-1.529e-05,0.0,0 STARLINK-3919,1 52580U 22051AW  23301.02284851 -.00001529  00000-0 -78017-4 0  9995,2 52580  53.2166  51.2801 0001383  87.4166 272.6984 15.08835499 81064,6917.894,95.438,540.716,538.802,0.0
52580.0,STARLINK-3919,PAYLOAD,2023-10-28 13:15:59,15.0882963,0.0001335,53.2167,48.9018,87.6326,272.4819,-0.00016879,-2.972e-05,0.0,0 STARLINK-3919,1 52580U 22051AW  23301.55277526 -.00002972  00000-0 -16879-3 0  9994,2 52580  53.2167  48.9018 0001335  87.6326 272.4819 15.08829630 81071,6917.912,95.438,540.701,538.854,0.0
52580.0,STARLINK-3919,PAYLOAD,2023-10-28 14:51:22,15.08830035,0.0001347,53.2166,48.6042,86.6215,273.4931,-0.00016265,-2.875e-05,0.0,0 STARLINK-3919,1 52580U 22051AW  23301.61901291 -.00002875  00000-0 -16265-3 0  9995,2 52580  53.2166  48.6042 0001347  86.6215 273.4931 15.08830035 81081,6917.911,95.438,540.708,538.844,0.0
52580.0,STARLINK-3919,PAYLOAD,2023-10-29 13:06:45,15.08863077,0.0001413,53.2172,44.4396,93.3591,266.7563,0.00079185,0.00012345,0.0,0 STARLINK-3919,1 52580U 22051AW  23302.54636557  .00012345  00000-0  79185-3 0  9999,2 52580  53.2172  44.4396 0001413  93.3591 266.7563 15.08863077 81291,6917.81,95.436,540.652,538.697,0.0
52580.0,STARLINK-3919,PAYLOAD,2023-10-29 14:42:08,15.08868038,0.000139,53.2169,44.1436,87.4181,272.697,0.00092085,0.00014409,0.0,0 STARLINK-3919,1 52580U 22051AW  23302.61260388  .00014409  00000-0  92085-3 0  9999,2 52580  53.2169  44.1436 0001390  87.4181 272.6970 15.08868038 81236,6917.795,95.436,540.621,538.698,0.0
52580.0,STARLINK-3919,PAYLOAD,2023-10-30 11:22:10,15.08841638,0.0001207,53.218,40.2781,111.6356,248.4765,0.00012021,1.626e-05,0.0,0 STARLINK-3919,1 52580U 22051AW  23303.47372944  .00001626  00000-0  12021-3 0  9995,2 52580  53.2180  40.2781 0001207 111.6356 248.4765 15.08841638 81432,6917.875,95.437,540.575,538.905,0.0
52580.0,STARLINK-3919,PAYLOAD,2023-10-30 16:08:19,15.08842875,0.0001469,53.2175,39.3868,102.4856,257.6301,0.00046033,7.046e-05,0.0,0 STARLINK-3919,1 52580U 22051AW  23303.67245004  .00007046  00000-0  46033-3 0  9995,2 52580  53.2175  39.3868 0001469 102.4856 257.6301 15.08842875 81391,6917.872,95.437,540.753,538.72,0.0
52580.0,STARLINK-3919,PAYLOAD,2023-10-31 12:48:21,15.08842918,0.0001443,53.2174,35.52,93.7343,266.3814,0.0010592,0.00016611,0.0,0 STARLINK-3919,1 52580U 22051AW  23304.53358040  .00016611  00000-0  10592-2 0  9994,2 52580  53.2174  35.5200 0001443  93.7343 266.3814 15.08842918 81599,6917.871,95.437,540.735,538.738,0.0
52580.0,STARLINK-3919,PAYLOAD,2023-10-31 15:59:07,15.08846982,0.0001427,53.2175,34.9261,87.8665,272.2491,0.0013503,0.00021271,0.0,0 STARLINK-3919,1 52580U 22051AW  23304.66606058  .00021271  00000-0  13503-2 0  9996,2 52580  53.2175  34.9261 0001427  87.8665 272.2491 15.08846982 81540,6917.859,95.437,540.711,538.737,0.0
